{
    "links": {
        "self": "http://www.neowsapp.com/rest/v1/neo/3713940?api_key=iIulBulltgU6a56xZRHN4H3l9WmuAYTsLGpBGhQ2"
    },
    "id": "3713940",
    "neo_reference_id": "3713940",
    "name": "(2015 FO33)",
    "designation": "2015 FO33",
    "nasa_jpl_url": "http://ssd.jpl.nasa.gov/sbdb.cgi?sstr=3713940",
    "absolute_magnitude_h": 24.1,
    "estimated_diameter": {
        "kilometers": {
            "estimated_diameter_min": 0.040230458,
            "estimated_diameter_max": 0.0899580388
        },
        "meters": {
            "estimated_diameter_min": 40.2304579834,
            "estimated_diameter_max": 89.9580388169
        },
        "miles": {
            "estimated_diameter_min": 0.0249980399,
            "estimated_diameter_max": 0.0558973165
        },
        "feet": {
            "estimated_diameter_min": 131.9896957704,
            "estimated_diameter_max": 295.1379320721
        }
    },
    "is_potentially_hazardous_asteroid": false,
    "close_approach_data": [
        {
            "close_approach_date": "2015-02-13",
            "close_approach_date_full": "2015-Feb-13 02:33",
            "epoch_date_close_approach": 1423794780000,
            "relative_velocity": {
                "kilometers_per_second": "2.6988341935",
                "kilometers_per_hour": "9715.8030964667",
                "miles_per_hour": "6037.0222073573"
            },
            "miss_distance": {
                "astronomical": "0.1314125059",
                "lunar": "51.1194647951",
                "kilometers": "19659030.974002433",
                "miles": "12215555.4044142554"
            },
            "orbiting_body": "Earth"
        }
    ],
    "orbital_data": {
        "orbit_id": "5",
        "orbit_determination_date": "2017-04-06 08:35:02",
        "first_observation_date": "2015-03-16",
        "last_observation_date": "2015-03-21",
        "data_arc_in_days": 5,
        "observations_used": 13,
        "orbit_uncertainty": "9",
        "minimum_orbit_intersection": ".0989437",
        "jupiter_tisserand_invariant": "4.647",
        "epoch_osculation": "2457098.5",
        "eccentricity": ".2446022280892514",
        "semi_major_axis": "1.433646663005085",
        "inclination": "2.33763340798621",
        "ascending_node_longitude": "3.471997045422953",
        "orbital_period": "626.9914507657761",
        "perihelion_distance": "1.082973494941321",
        "perihelion_argument": "139.2438912963562",
        "aphelion_distance": "1.784319831068849",
        "perihelion_time": "2457070.281709902936",
        "mean_anomaly": "16.20210996902087",
        "mean_motion": ".5741705083224243",
        "equinox": "J2000",
        "orbit_class": {
            "orbit_class_type": "AMO",
            "orbit_class_description": "Near-Earth asteroid orbits similar to that of 1221 Amor",
            "orbit_class_range": "1.017 AU < q (perihelion) < 1.3 AU"
        }
    },
    "is_sentry_object": false
}